NORAD_CAT_ID,OBJECT_NAME,OBJECT_TYPE,EPOCH,MEAN_MOTION,ECCENTRICITY,INCLINATION,RA_OF_ASC_NODE,ARG_OF_PERICENTER,MEAN_ANOMALY,BSTAR,MEAN_MOTION_DOT,MEAN_MOTION_DDOT,TLE_LINE0,TLE_LINE1,TLE_LINE2,SEMIMAJOR_AXIS,PERIOD,APOGEE,PERIGEE,DECAYED
53910.0,STARLINK-5056,PAYLOAD,2023-05-10 16:19:15,15.0883915,7.73e-05,53.215,276.0337,105.8565,254.2512,5.6928e-05,6.18e-06,0.0,0 STARLINK-5056,1 53910U 22119AA  23130.68003578  .00000618  00000-0  56928-4 0  9998,2 53910  53.2150 276.0337 0000773 105.8565 254.2512 15.08839150 35729,6917.883,95.438,540.283,539.213,0.0
53910.0,STARLINK-5056,PAYLOAD,2023-05-11 14:34:38,15.08842776,7.52e-05,53.2154,271.8712,93.9146,266.1932,4.6984e-05,4.6e-06,0.0,0 STARLINK-5056,1 53910U 22119AA  23131.60739531  .00000460  00000-0  46984-4 0  9992,2 53910  53.2154 271.8712 0000752  93.9146 266.1932 15.08842776 35863,6917.872,95.437,540.257,539.217,0.0
53910.0,STARLINK-5056,PAYLOAD,2023-05-12 01:42:20,15.08842787,7.58e-05,53.2155,269.7894,91.5514,268.5565,3.8908e-05,3.32e-06,0.0,0 STARLINK-5056,1 53910U 22119AA  23132.07107483  .00000332  00000-0  38908-4 0  9994,2 53910  53.2155 269.7894 0000758  91.5514 268.5565 15.08842787 35512,6917.872,95.437,540.261,539.212,0.0
53910.0,STARLINK-5056,PAYLOAD,2023-05-12 16:00:49,15.08834824,8.66e-05,53.2161,267.113,84.5586,275.5504,7.4708e-05,9.01e-06,0.0,0 STARLINK-5056,1 53910U 22119AA  23132.66724166  .00000901  00000-0  74708-4 0  9992,2 53910  53.2161 267.1130 0000866  84.5586 275.5504 15.08834824 35609,6917.896,95.438,540.36,539.162,0.0
53910.0,STARLINK-5056,PAYLOAD,2023-05-13 01:33:07,15.08845573,0.0001014,53.2171,265.3311,92.0503,268.0605,3.2613e-05,2.31e-06,0.0,0 STARLINK-5056,1 53910U 22119AA  23133.06467572  .00000231  00000-0  32613-4 0  9997,2 53910  53.2171 265.3311 0001014  92.0503 268.0605 15.08845573 35668,6917.863,95.437,540.43,539.027,0.0
53910.0,STARLINK-5056,PAYLOAD,2023-05-13 12:40:50,15.08841788,8.01e-05,53.2156,263.2494,89.0479,271.0605,1.3742e-06,-2.66e-06,0.0,0 STARLINK-5056,1 53910U 22119AA  23133.52835839 -.00000266  00000-0  13742-5 0  9995,2 53910  53.2156 263.2494 0000801  89.0479 271.0605 15.08841788 36154,6917.875,95.437,540.294,539.186,0.0
53910.0,STARLINK-5056,PAYLOAD,2023-05-13 15:51:36,15.08844695,9.76e-05,53.2166,262.6532,79.6429,280.4674,0.00013433,1.851e-05,0.0,0 STARLINK-5056,1 53910U 22119AA  23133.66083428  .00001851  00000-0  13433-3 0  9994,2 53910  53.2166 262.6532 0000976  79.6429 280.4674 15.08844695 36176,6917.866,95.437,540.406,539.056,0.0
53910.0,STARLINK-5056,PAYLOAD,2023-05-14 01:23:55,15.08835811,9.8e-05,53.2172,260.8715,96.1319,263.9785,7.3861e-05,8.88e-06,0.0,0 STARLINK-5056,1 53910U 22119AA  23134.05828196  .00000888  00000-0  73861-4 0  9998,2 53910  53.2172 260.8715 0000980  96.1319 263.9785 15.08835811 35812,6917.893,95.438,540.436,539.08,0.0
53910.0,STARLINK-5056,PAYLOAD,2023-05-14 14:07:01,15.08834127,0.0001076,53.2175,258.4948,103.9096,256.2016,4.0657e-06,-2.23e-06,0.0,0 STARLINK-5056,1 53910U 22119AA  23134.58820766 -.00000223  00000-0  40657-5 0  9993,2 53910  53.2175 258.4948 0001076 103.9096 256.2016 15.08834127 36319,6917.898,95.438,540.508,539.019,0.0
53910.0,STARLINK-5056,PAYLOAD,2023-05-14 15:42:24,15.08836908,0.0001076,53.2171,258.1938,82.5341,277.5773,1.3693e-06,-2.66e-06,0.0,0 STARLINK-5056,1 53910U 22119AA  23134.65444635 -.00000266  00000-0  13693-5 0  9995,2 53910  53.2171 258.1938 0001076  82.5341 277.5773 15.08836908 36322,6917.89,95.438,540.499,539.01,0.0
53910.0,STARLINK-5056,PAYLOAD,2023-05-15 12:22:24,15.08837631,9.47e-05,53.2161,254.3292,82.7015,277.4084,7.7459e-05,9.45e-06,0.0,0 STARLINK-5056,1 53910U 22119AA  23135.51556463  .00000945  00000-0  77459-4 0  9996,2 53910  53.2161 254.3292 0000947  82.7015 277.4084 15.08837631 36450,6917.888,95.438,540.408,539.098,0.0
53910.0,STARLINK-5056,PAYLOAD,2023-05-15 15:33:10,15.08843591,0.0001136,53.2169,253.7336,71.2975,288.814,5.1481e-05,5.32e-06,0.0,0 STARLINK-5056,1 53910U 22119AA  23135.64804253  .00000532  00000-0  51481-4 0  9992,2 53910  53.2169 253.7336 0001136  71.2975 288.8140 15.08843591 36056,6917.869,95.437,540.52,538.949,0.0
53910.0,STARLINK-5056,PAYLOAD,2023-05-16 07:27:02,15.08836757,0.0001201,53.2164,250.7612,82.7826,277.3302,0.0001295,1.774e-05,0.0,0 STARLINK-5056,1 53910U 22119AA  23136.31044592  .00001774  00000-0  12950-3 0  9995,2 53910  53.2164 250.7612 0001201  82.7826 277.3302 15.08836757 36150,6917.89,95.438,540.586,538.924,0.0
53910.0,STARLINK-5056,PAYLOAD,2023-05-16 12:13:12,15.08836236,0.0001196,53.2166,249.8687,82.7143,277.3985,0.00011975,1.618e-05,0.0,0 STARLINK-5056,1 53910U 22119AA  23136.50916690  .00001618  00000-0  11975-3 0  9996,2 53910  53.2166 249.8687 0001196  82.7143 277.3985 15.08836236 36607,6917.892,95.438,540.584,538.93,0.0
53910.0,STARLINK-5056,PAYLOAD,2023-05-17 10:28:35,15.08840108,0.0001234,53.2166,245.7052,82.0438,278.0694,5.8884e-05,6.49e-06,0.0,0 STARLINK-5056,1 53910U 22119AA  23137.43652576  .00000649  00000-0  58884-4 0  9993,2 53910  53.2166 245.7052 0001234  82.0438 278.0694 15.08840108 36328,6917.88,95.438,540.599,538.891,0.0
53910.0,STARLINK-5056,PAYLOAD,2023-05-17 13:39:21,15.08842522,0.0001215,53.2165,245.1103,84.935,275.1781,5.3556e-05,5.65e-06,0.0,0 STARLINK-5056,1 53910U 22119AA  23137.56900401  .00000565  00000-0  53556-4 0  9998,2 53910  53.2165 245.1103 0001215  84.9350 275.1781 15.08842522 36766,6917.873,95.437,540.578,538.897,0.0
53910.0,STARLINK-5056,PAYLOAD,2023-05-18 11:54:46,15.08835326,0.0001123,53.2162,240.9459,92.914,267.198,-3.2693e-06,-3.4e-06,0.0,0 STARLINK-5056,1 53910U 22119AA  23138.49636978 -.00000340  00000-0 -32693-5 0  9999,2 53910  53.2162 240.9459 0001123  92.9140 267.1980 15.08835326 36489,6917.895,95.438,540.537,538.983,0.0
53910.0,STARLINK-5056,PAYLOAD,2023-05-18 13:30:09,15.08835506,0.0001121,53.2162,240.6486,92.7983,267.3138,-3.7237e-06,-3.47e-06,0.0,0 STARLINK-5056,1 53910U 22119AA  23138.56260970 -.00000347  00000-0 -37237-5 0  9998,2 53910  53.2162 240.6486 0001121  92.7983 267.3138 15.08835506 36912,6917.894,95.438,540.535,538.984,0.0
53910.0,STARLINK-5056,PAYLOAD,2023-05-19 11:45:32,15.08840757,0.0001055,53.2157,236.484,96.5254,263.5859,5.7213e-05,6.23e-06,0.0,0 STARLINK-5056,1 53910U 22119AA  23139.48996504  .00000623  00000-0  57213-4 0  9999,2 53910  53.2157 236.4840 0001055  96.5254 263.5859 15.08840757 36633,6917.878,95.438,540.473,539.013,0.0
53910.0,STARLINK-5056,PAYLOAD,2023-05-20 13:11:42,15.08847652,0.0001067,53.2155,231.7271,94.5509,265.5605,0.00015829,2.233e-05,0.0,0 STARLINK-5056,1 53910U 22119AA  23140.54979926  .00002233  00000-0  15829-3 0  9992,2 53910  53.2155 231.7271 0001067  94.5509 265.5605 15.08847652 36790,6917.857,95.437,540.46,538.984,0.0
53910.0,STARLINK-5056,PAYLOAD,2023-05-21 05:05:34,15.0884409,0.0001081,53.2157,228.7557,85.4702,274.6414,5.9525e-05,6.6e-06,0.0,0 STARLINK-5056,1 53910U 22119AA  23141.21220319  .00000660  00000-0  59525-4 0  9996,2 53910  53.2157 228.7557 0001081  85.4702 274.6414 15.08844090 36898,6917.868,95.437,540.481,538.985,0.0
53910.0,STARLINK-5056,PAYLOAD,2023-05-21 11:27:07,15.0884101,0.000102,53.2149,227.5655,93.2645,266.8464,1.5631e-06,-2.63e-06,0.0,0 STARLINK-5056,1 53910U 22119AA  23141.47716578 -.00000263  00000-0  15631-5 0  9992,2 53910  53.2149 227.5655 0001020  93.2645 266.8464 15.08841010 37350,6917.877,95.437,540.448,539.037,0.0
53910.0,STARLINK-5056,PAYLOAD,2023-05-21 14:37:53,15.08836758,0.0001249,53.2169,226.9705,75.8099,284.3032,0.00013377,1.842e-05,0.0,0 STARLINK-5056,1 53910U 22119AA  23141.60964514  .00001842  00000-0  13377-3 0  9998,2 53910  53.2169 226.9705 0001249  75.8099 284.3032 15.08836758 37374,6917.89,95.438,540.619,538.891,0.0
53910.0,STARLINK-5056,PAYLOAD,2023-05-22 04:56:21,15.08837517,0.0001355,53.2151,224.2952,83.8016,276.313,1.704e-05,-1.7e-07,0.0,0 STARLINK-5056,1 53910U 22119AA  23142.20580921 -.00000017  00000-0  17040-4 0  9997,2 53910  53.2151 224.2952 0001355  83.8016 276.3130 15.08837517 37044,6917.888,95.438,540.69,538.816,0.0
53910.0,STARLINK-5056,PAYLOAD,2023-05-22 09:42:31,15.08833831,0.0001481,53.2172,223.4023,86.6304,273.4857,-8.1248e-05,-1.581e-05,0.0,0 STARLINK-5056,1 53910U 22119AA  23142.40453484 -.00001581  00000-0 -81248-4 0  9991,2 53910  53.2172 223.4023 0001481  86.6304 273.4857 15.08833831 37496,6917.899,95.438,540.789,538.74,0.0
53910.0,STARLINK-5056,PAYLOAD,2023-05-22 14:28:41,15.0883442,0.0001286,53.2173,222.5101,75.9991,284.1144,-5.004e-05,-1.084e-05,0.0,0 STARLINK-5056,1 53910U 22119AA  23142.60325414 -.00001084  00000-0 -50040-4 0  9998,2 53910  53.2173 222.5101 0001286  75.9991 284.1144 15.08834420 37527,6917.897,95.438,540.652,538.873,0.0
53910.0,STARLINK-5056,PAYLOAD,2023-05-23 22:16:23,15.08840992,0.0001113,53.2161,216.5624,85.2354,274.8765,1.677e-05,-2.1e-07,0.0,0 STARLINK-5056,1 53910U 22119AA  23143.92805154 -.00000021  00000-0  16770-4 0  9999,2 53910  53.2161 216.5624 0001113  85.2354 274.8765 15.08840992 37721,6917.877,95.437,540.512,538.972,0.0
53910.0,STARLINK-5056,PAYLOAD,2023-05-25 14:01:01,15.0884208,0.0001089,53.2157,209.1268,86.93,273.1817,6.518e-05,7.5e-06,0.0,0 STARLINK-5056,1 53910U 22119AA  23145.58405064  .00000750  00000-0  65180-4 0  9996,2 53910  53.2157 209.1268 0001089  86.9300 273.1817 15.08842080 37976,6917.874,95.437,540.492,538.986,0.0
53910.0,STARLINK-5056,PAYLOAD,2023-05-26 13:51:48,15.08841574,0.0001141,53.2158,204.6648,101.5391,258.573,1.011e-05,-1.27e-06,0.0,0 STARLINK-5056,1 53910U 22119AA  23146.57764986 -.00000127  00000-0  10110-4 0  9999,2 53910  53.2158 204.6648 0001141 101.5391 258.5730 15.08841574 38128,6917.876,95.437,540.53,538.951,0.0
53910.0,STARLINK-5056,PAYLOAD,2023-05-26 23:24:07,15.08837147,0.0001078,53.2148,202.8806,99.9216,260.1898,5.432e-06,-2.01e-06,0.0,0 STARLINK-5056,1 53910U 22119AA  23146.97509222 -.00000201  00000-0  54320-5 0  9998,2 53910  53.2148 202.8806 0001078  99.9216 260.1898 15.08837147 37762,6917.889,95.438,540.5,539.008,0.0
